STARLINK-35998          
1 68055U 26041R   26148.02316685  .00033196  00000+0  98817-3 0  9996
2 68055  53.1617  41.4482 0001685  58.9778 301.1390 15.34435237 13532
STARLINK-36845          
1 68056U 26041S   26148.12561701  .00020500  00000+0  61628-3 0  9994
2 68056  53.1586  39.2399 0001199 104.2390 255.8745 15.34396492 13577
STARLINK-36954          
1 68057U 26041T   26147.91758416  .00029823  00000+0  88983-3 0  9992
2 68057  53.1596  40.0854 0001375 137.3744 222.7365 15.34416324 13546
STARLINK-36899          
1 68058U 26041U   26147.92794976  .00025929  00000+0  88465-3 0  9993
2 68058  53.1583  41.5794 0001164  92.7549 267.3585 15.30195078 13528
STARLINK-36917          
1 68059U 26041V   26147.93862412  .00027083  00000+0  80943-3 0  9992
2 68059  53.1594  40.2108 0000871 102.8910 257.2190 15.34415044 13549
STARLINK-36959          
1 68060U 26041W   26147.90917106  .00027879  00000+0  83285-3 0  9997
2 68060  53.1600  40.0277 0001142 100.2418 259.8714 15.34412284 13544
STARLINK-36915          
1 68061U 26041X   26148.08353654  .00024387  00000+0  73060-3 0  9991
2 68061  53.1617  38.9752 0000549  69.8181 290.2881 15.34397258 13574
STARLINK-36952          
1 68062U 26041Y   26148.12140932  .00035426  00000+0  10543-2 0  9992
2 68062  53.1594  39.2287 0001060  76.3527 283.7593 15.34411824 13575
STARLINK-37000          
1 68063U 26041Z   26148.07310912  .00040049  00000+0  11898-2 0  9995
2 68063  53.1596  39.6354 0001716  35.9583 324.1535 15.34406999 13560
STARLINK-36996          
1 68064U 26041AA  26148.07932637  .00020237  00000+0  60832-3 0  9990
2 68064  53.1606  38.9520 0001249  89.3200 270.7946 15.34407311 13572
STARLINK-36836          
1 68065U 26041AB  26148.07546140  .00025417  00000+0  86719-3 0  9998
2 68065  53.1593  41.0527 0001277  61.3785 298.7344 15.30205342 13544
STARLINK-36976          
1 68066U 26041AC  26148.08774590  .00037533  00000+0  11164-2 0  9995
2 68066  53.1613  39.0082 0000825  75.9411 284.1684 15.34399686 13574
STARLINK-36929          
1 68067U 26041AD  26147.92810874  .00011836  00000+0  36107-3 0  9997
2 68067  53.1592  40.1562 0001184  81.9800 278.1337 15.34382346 13545
STARLINK-36990          
1 68068U 26041AE  26147.93909487  .00027389  00000+0  81837-3 0  9998
2 68068  53.1593  41.6237 0000794 110.3449 249.7639 15.34415929 13525
STARLINK-36766          
1 68069U 26042A   26148.32461710  .00029214  00000+0  87192-3 0  9995
2 68069  53.1602 168.4084 0001436  85.1088 275.0079 15.34416995 14500
STARLINK-36823          
1 68070U 26042B   26148.23155904  .00038563  00000+0  11465-2 0  9998
2 68070  53.1589 166.3570 0000932 109.1960 250.9143 15.34404009 14528
STARLINK-36970          
1 68071U 26042C   26148.31199319  .00008724  00000+0  26894-3 0  9995
2 68071  53.1591 168.3250 0001471  99.8969 260.2200 15.34411900 14506
STARLINK-36972          
1 68072U 26042D   26148.27832482  .00027097  00000+0  81015-3 0  9996
2 68072  53.1567 168.1042 0000879  58.3148 301.7940 15.34402804 14502
STARLINK-37074          
1 68073U 26042E   26148.28884459  .00025011  00000+0  74871-3 0  9995
2 68073  53.1576 168.1714 0000954  81.6602 278.4509 15.34407930 14503
STARLINK-37045          
1 68074U 26042F   26148.31620282  .00021233  00000+0  63766-3 0  9995
2 68074  53.1592 168.3659 0001174  86.1469 273.9668 15.34405335 14501
STARLINK-37026          
1 68075U 26042G   26148.32251209  .00032044  00000+0  95517-3 0  9997
2 68075  53.1596 168.3976 0001252  80.2871 279.8273 15.34410472 14502
STARLINK-37023          
1 68076U 26042H   26148.30778478  .00019366  00000+0  58271-3 0  9996
2 68076  53.1588 168.3031 0001182  88.9728 271.1410 15.34405532 14503
STARLINK-37036          
1 68077U 26042J   26148.26522673  .00021331  00000+0  64051-3 0  9994
2 68077  53.1573 166.5978 0001300  91.6983 268.4168 15.34408037 14528
STARLINK-36973          
1 68078U 26042K   26148.28674144  .00019667  00000+0  59169-3 0  9991
2 68078  53.1565 168.1577 0000725  61.5490 298.5586 15.34399673 14503
STARLINK-37063          
1 68079U 26042L   26148.23633641  .00027346  00000+0  81713-3 0  9997
2 68079  53.1592 168.5573 0002037  86.1611 273.9625 15.34414481 14494
STARLINK-37051          
1 68080U 26042M   26148.32194683  .00031342  00000+0  93521-3 0  9998
2 68080  53.1586 166.2226 0001373  90.2128 269.9032 15.34388070 14536
STARLINK-37066          
1 68081U 26042N   26148.27365716  .00017703  00000+0  53350-3 0  9991
2 68081  53.1577 166.6523 0001056  82.8509 277.2614 15.34419674 14521
STARLINK-37054          
1 68082U 26042P   26148.29094847  .00013047  00000+0  39656-3 0  9998
2 68082  53.1577 168.1761 0001351  87.2167 272.8990 15.34402992 14501
STARLINK-37065          
1 68083U 26042Q   26148.31830464  .00024869  00000+0  74489-3 0  9992
2 68083  53.1595 168.3722 0001154  91.7226 268.3909 15.34392673 14502
STARLINK-37037          
1 68084U 26042R   26148.28253483  .00020968  00000+0  62988-3 0  9996
2 68084  53.1571 168.1356 0001070  81.2718 278.8406 15.34403822 14502
