OBJECT_NAME,OBJECT_ID,EPOCH,MEAN_MOTION,ECCENTRICITY,INCLINATION,RA_OF_ASC_NODE,ARG_OF_PERICENTER,MEAN_ANOMALY,EPHEMERIS_TYPE,CLASSIFICATION_TYPE,NORAD_CAT_ID,ELEMENT_SET_NO,REV_AT_EPOCH,BSTAR,MEAN_MOTION_DOT,MEAN_MOTION_DDOT
STARLINK-35998,2026-041R,2026-05-28T00:33:21.615840,15.34435237,.0001685,53.1617,41.4482,58.9778,301.1390,0,U,68055,999,1353,.98816671E-3,.33196E-3,0
STARLINK-36845,2026-041S,2026-05-28T03:00:53.309664,15.34396492,.00011997,53.1586,39.2399,104.2390,255.8745,0,U,68056,999,1357,.61628178E-3,.205E-3,0
STARLINK-36954,2026-041T,2026-05-27T22:01:19.271424,15.34416324,.0001375,53.1596,40.0854,137.3744,222.7365,0,U,68057,999,1354,.88983E-3,.29823E-3,0
STARLINK-36899,2026-041U,2026-05-27T22:16:14.859264,15.30195078,.0001164,53.1583,41.5794,92.7549,267.3585,0,U,68058,999,1352,.88465E-3,.25929E-3,0
STARLINK-36917,2026-041V,2026-05-27T22:31:37.123968,15.34415044,.00008712,53.1594,40.2108,102.8910,257.2190,0,U,68059,999,1354,.80942696E-3,.27083E-3,0
STARLINK-36959,2026-041W,2026-05-27T21:49:12.379584,15.34412284,.0001142,53.1600,40.0277,100.2418,259.8714,0,U,68060,999,1354,.83285E-3,.27879E-3,0
STARLINK-36915,2026-041X,2026-05-28T02:00:17.557056,15.34397258,.00005498,53.1617,38.9752,69.8181,290.2881,0,U,68061,999,1357,.73060404E-3,.24387E-3,0
STARLINK-36952,2026-041Y,2026-05-28T02:54:49.765248,15.34411824,.00010606,53.1594,39.2287,76.3527,283.7593,0,U,68062,999,1357,.10542719E-2,.35426E-3,0
STARLINK-37000,2026-041Z,2026-05-28T01:45:16.627968,15.34406999,.00017168,53.1596,39.6354,35.9583,324.1535,0,U,68063,999,1356,.11898487E-2,.40049E-3,0
STARLINK-36996,2026-041AA,2026-05-28T01:54:13.798368,15.34407311,.00012496,53.1606,38.9520,89.3200,270.7946,0,U,68064,999,1357,.60832299E-3,.20237E-3,0
STARLINK-36836,2026-041AB,2026-05-28T01:48:39.864960,15.30205342,.00012778,53.1593,41.0527,61.3785,298.7344,0,U,68065,999,1354,.86719115E-3,.25417E-3,0
STARLINK-36976,2026-041AC,2026-05-28T02:06:21.245760,15.34399686,.00008258,53.1613,39.0082,75.9411,284.1684,0,U,68066,999,1357,.11164386E-2,.37533E-3,0
STARLINK-36929,2026-041AD,2026-05-27T22:16:28.595136,15.34382346,.0001184,53.1592,40.1562,81.9800,278.1337,0,U,68067,999,1354,.36107E-3,.11836E-3,0
STARLINK-36990,2026-041AE,2026-05-27T22:32:17.796768,15.34415929,.00007949,53.1593,41.6237,110.3449,249.7639,0,U,68068,999,1352,.81837483E-3,.27389E-3,0
STARLINK-36766,2026-042A,2026-05-28T07:47:26.917440,15.34416995,.00014367,53.1602,168.4084,85.1088,275.0079,0,U,68069,999,1450,.87191864E-3,.29214E-3,0
STARLINK-36823,2026-042B,2026-05-28T05:33:26.701056,15.34404009,.00009325,53.1589,166.3570,109.1960,250.9143,0,U,68070,999,1452,.11464636E-2,.38563E-3,0
STARLINK-36970,2026-042C,2026-05-28T07:29:16.211616,15.34411900,.00014711,53.1591,168.3250,99.8969,260.2200,0,U,68071,999,1450,.26893641E-3,.8724E-4,0
STARLINK-36972,2026-042D,2026-05-28T06:40:47.264448,15.34402804,.00008791,53.1567,168.1042,58.3148,301.7940,0,U,68072,999,1450,.81015367E-3,.27097E-3,0
STARLINK-37074,2026-042E,2026-05-28T06:55:56.172576,15.34407930,.00009548,53.1576,168.1714,81.6602,278.4509,0,U,68073,999,1450,.74870591E-3,.25011E-3,0
STARLINK-37045,2026-042F,2026-05-28T07:35:19.923648,15.34405335,.00011745,53.1592,168.3659,86.1469,273.9668,0,U,68074,999,1450,.63766095E-3,.21233E-3,0
STARLINK-37026,2026-042G,2026-05-28T07:44:25.044576,15.34410472,.00012526,53.1596,168.3976,80.2871,279.8273,0,U,68075,999,1450,.95516939E-3,.32044E-3,0
STARLINK-37023,2026-042H,2026-05-28T07:23:12.604992,15.34405532,.00011828,53.1588,168.3031,88.9728,271.1410,0,U,68076,999,1450,.58271082E-3,.19366E-3,0
STARLINK-37036,2026-042J,2026-05-28T06:21:55.589472,15.34408037,.00013006,53.1573,166.5978,91.6983,268.4168,0,U,68077,999,1452,.64050824E-3,.21331E-3,0
STARLINK-36973,2026-042K,2026-05-28T06:52:54.460416,15.34399673,.00007255,53.1565,168.1577,61.5490,298.5586,0,U,68078,999,1450,.59168773E-3,.19667E-3,0
STARLINK-37063,2026-042L,2026-05-28T05:40:19.465824,15.34414481,.00020375,53.1592,168.5573,86.1611,273.9625,0,U,68079,999,1449,.8171329E-3,.27346E-3,0
STARLINK-37051,2026-042M,2026-05-28T07:43:36.206112,15.34388070,.0001373,53.1586,166.2226,90.2128,269.9032,0,U,68080,999,1453,.93521385E-3,.31342E-3,0
STARLINK-37066,2026-042N,2026-05-28T06:34:03.978624,15.34419674,.00010562,53.1577,166.6523,82.8509,277.2614,0,U,68081,999,1452,.53349885E-3,.17703E-3,0
STARLINK-37054,2026-042P,2026-05-28T06:58:57.947808,15.34402992,.00013518,53.1577,168.1761,87.2167,272.8990,0,U,68082,999,1450,.39656003E-3,.13047E-3,0
STARLINK-37065,2026-042Q,2026-05-28T07:38:21.520896,15.34392673,.00011542,53.1595,168.3722,91.7226,268.3909,0,U,68083,999,1450,.74488526E-3,.24869E-3,0
STARLINK-37037,2026-042R,2026-05-28T06:46:51.009312,15.34403822,.00010709,53.1571,168.1356,81.2718,278.8406,0,U,68084,999,1450,.6298834E-3,.20968E-3,0
